[{ "city" : "AGAWAM", "loc" : [ -72.622739, 42.070206 ], "pop" : 15338, "state" : "MA", "zip" : "01001" },
{ "city" : "CUSHMAN", "loc" : [ -72.51564999999999, 42.377017 ], "pop" : 36963, "state" : "MA", "zip" : "01002" },
{ "city" : "BARRE", "loc" : [ -72.10835400000001, 42.409698 ], "pop" : 4546, "state" : "MA", "zip" : "01005" },
{ "city" : "BELCHERTOWN", "loc" : [ -72.41095300000001, 42.275103 ], "pop" : 10579, "state" : "MA", "zip" : "01007" },
{ "city" : "BLANDFORD", "loc" : [ -72.936114, 42.182949 ], "pop" : 1240, "state" : "MA", "zip" : "01008" },
{ "city" : "BRIMFIELD", "loc" : [ -72.188455, 42.116543 ], "pop" : 3706, "state" : "MA", "zip" : "01010" },
{ "city" : "CHESTER", "loc" : [ -72.988761, 42.279421 ], "pop" : 1688, "state" : "MA", "zip" : "01011" },
{ "city" : "CHESTERFIELD", "loc" : [ -72.833309, 42.38167 ], "pop" : 177, "state" : "MA", "zip" : "01012" },
{ "city" : "CHICOPEE", "loc" : [ -72.607962, 42.162046 ], "pop" : 23396, "state" : "MA", "zip" : "01013" },
{ "city" : "CHICOPEE", "loc" : [ -72.576142, 42.176443 ], "pop" : 31495, "state" : "MA", "zip" : "01020" },
{ "city" : "WESTOVER AFB", "loc" : [ -72.558657, 42.196672 ], "pop" : 1764, "state" : "MA", "zip" : "01022" },
{ "city" : "CUMMINGTON", "loc" : [ -72.905767, 42.435296 ], "pop" : 1484, "state" : "MA", "zip" : "01026" }]
